1 41308U 16004A   26055.14152336  .00000079  00000-0  00000-0 0  9996
2 41308   6.2156  71.6828 0001436 213.4575 137.2131  1.00623989 37131
1 41308U 16004A   26055.21364314  .00000078  00000-0  00000+0 0  9993
2 41308   6.2158  71.6818 0001433 213.6272 163.1701  1.00624021 37145
1 41308U 16004A   26055.21364314  .00000078  00000-0  00000-0 0  9994
2 41308   6.2158  71.6818 0001433 213.6272 163.1701  1.00624021 37145
1 41308U 16004A   26055.71219550  .00000073  00000-0  00000+0 0  9994
2 41308   6.2172  71.6753 0001430 214.3621 343.0440  1.00624190 37148
1 41308U 16004A   26055.71219550  .00000073  00000-0  00000-0 0  9995
2 41308   6.2172  71.6753 0001430 214.3621 343.0440  1.00624190 37148
1 41308U 16004A   26056.14024310  .00000069  00000-0  00000+0 0  9995
2 41308   6.2184  71.6700 0001438 214.7805 137.6934  1.00624394 37140
1 41308U 16004A   26056.21157009  .00000068  00000-0  00000+0 0  9994
2 41308   6.2186  71.6690 0001436 214.9102 163.4032  1.00624424 37151
1 41308U 16004A   26056.21157010  .00000068  00000-0  00000-0 0  9997
2 41308   6.2186  71.6690 0001436 214.9102 163.4032  1.00624424 37151
1 41308U 16004A   26056.56825774  .00000065  00000-0  00000-0 0  9991
2 41308   6.2196  71.6645 0001418 215.7861 291.7438  1.00624550 37158
1 41308U 16004A   26056.71091175  .00000063  00000-0  00000+0 0  9995
2 41308   6.2199  71.6627 0001417 215.9598 343.2494  1.00624647 37151
1 41308U 16004A   26057.13889360  .00000059  00000-0  00000+0 0  9998
2 41308   6.2212  71.6574 0001416 216.7664 137.4872  1.00624850 37159
1 41308U 16004A   26057.23704039  .00000058  00000-0  00000-0 0  9998
2 41308   6.2214  71.6562 0001414 216.8849 172.9242  1.00624883 37164
1 41308U 16004A   26057.59467025  .00000055  00000-0  00000-0 0  9995
2 41308   6.2224  71.6518 0001393 217.6571 301.7104  1.00625021 37167
1 41308U 16004A   26057.64530558  .00000054  00000-0  00000+0 0  9991
2 41308   6.2225  71.6512 0001391 217.7194 319.9918  1.00625060 37169
1 41308U 16004A   26058.06628788  .00000050  00000-0  00000+0 0  9997
2 41308   6.2237  71.6459 0001388 218.6757 111.5449  1.00625259 37168
1 41308U 16004A   26058.19628302  .00000049  00000-0  00000-0 0  9992
2 41308   6.2240  71.6445 0001384 218.9651 158.3488  1.00625324 37175
1 41308U 16004A   26058.63794691  .00000045  00000-0  00000+0 0  9991
2 41308   6.2253  71.6391 0001352 219.9372 317.3790  1.00625526 37172
1 41308U 16004A   26058.70821759  .00000045  00000-0  00000+0 0  9995
2 41308   6.2254  71.6382 0001346 220.1784 342.5947  1.00625550 37178
1 41308U 16004A   26058.70821759  .00000045  00000-0  00000-0 0  9996
2 41308   6.2254  71.6382 0001346 220.1784 342.5947  1.00625550 37178
1 41308U 16004A   26059.13634012  .00000041  00000-0  00000+0 0  9993
2 41308   6.2266  71.6329 0001334 221.4791 136.3907  1.00625756 37174
1 41308U 16004A   26059.22361693  .00000041  00000-0  00000-0 0  9996
2 41308   6.2268  71.6319 0001330 221.6957 167.7921  1.00625795 37185
1 41308U 16004A   26059.51503039  .00000038  00000-0  00000+0 0  9995
2 41308   6.2276  71.6281 0001309 222.2141 272.8450  1.00625917 37181
1 41308U 16004A   26059.70689354  .00000037  00000-0  00000+0 0  9990
2 41308   6.2281  71.6260 0001292 222.8560 341.7096  1.00625986 37184
1 41308U 16004A   26059.70689354  .00000037  00000-0  00000-0 0  9991
2 41308   6.2281  71.6260 0001292 222.8560 341.7096  1.00625986 37184
1 41308U 16004A   26060.18281001  .00000034  00000-0  00000+0 0  9998
2 41308   6.2294  71.6202 0001274 224.5407 152.4365  1.00626199 37197
1 41308U 16004A   26060.18281001  .00000034  00000-0  00000-0 0  9999
2 41308   6.2294  71.6202 0001274 224.5407 152.4365  1.00626199 37197
1 41308U 16004A   26060.52193237  .00000032  00000-0  00000+0 0  9997
2 41308   6.2303  71.6161 0001262 225.1490 274.6839  1.00626383 37196
1 41308U 16004A   26060.70550596  .00000031  00000-0  00000+0 0  9991
2 41308   6.2307  71.6139 0001247 225.6010 340.7360  1.00626468 37199
1 41308U 16004A   26060.70550596  .00000031  00000-0  00000-0 0  9992
2 41308   6.2307  71.6139 0001247 225.6010 340.7360  1.00626468 37199
1 41308U 16004A   26061.13351168  .00000029  00000-0  00000+0 0  9990
2 41308   6.2319  71.6087 0001224 227.4552 133.9372  1.00626656 37206
1 41308U 16004A   26061.52153969  .00000027  00000-0  00000+0 0  9990
2 41308   6.2329  71.6039 0001201 228.3512 273.6143  1.00626806 37200
1 41308U 16004A   26061.57474005  .00000026  00000-0  00000-0 0  9992
2 41308   6.2330  71.6034 0001196 228.4402 292.7986  1.00626846 37200
1 41308U 16004A   26061.70411447  .00000026  00000-0  00000+0 0  9997
2 41308   6.2333  71.6019 0001188 228.5966 339.5117  1.00626929 37201
1 41308U 16004A   26061.70411447  .00000026  00000-0  00000-0 0  9998
2 41308   6.2333  71.6019 0001188 228.5966 339.5117  1.00626929 37201
1 41308U 16004A   26062.13212014  .00000024  00000-0  00000+0 0  9992
2 41308   6.2345  71.5967 0001168 230.5180 132.6465  1.00627135 37213
1 41308U 16004A   26062.40803219  .00000023  00000-0  00000+0 0  9994
2 41308   6.2351  71.5933 0001142 232.0308 231.0908  1.00627284 37215
1 41308U 16004A   26062.56012058  .00000022  00000-0  00000-0 0  9994
2 41308   6.2355  71.5915 0001131 232.2178 286.0023  1.00627374 37212
1 41308U 16004A   26062.70277468  .00000021  00000-0  00000+0 0  9996
2 41308   6.2359  71.5897 0001119 232.5828 337.3178  1.00627440 37211
1 41308U 16004A   26062.70277469  .00000021  00000-0  00000-0 0  9998
2 41308   6.2359  71.5897 0001119 232.5828 337.3179  1.00627440 37212
1 41308U 16004A   26063.13078756  .00000019  00000-0  00000+0 0  9990
2 41308   6.2370  71.5845 0001096 234.7814 130.1788  1.00627646 37225
1 41308U 16004A   26063.13078757  .00000019  00000-0  00000-0 0  9992
2 41308   6.2370  71.5845 0001096 234.7814 130.1788  1.00627646 37225
1 41308U 16004A   26064.05807634  .00000015  00000-0  00000+0 0  9993
2 41308   6.2393  71.5731 0001041 238.4537 102.4446  1.00628083 37226
1 41308U 16004A   26064.20064366  .00000015  00000-0  00000-0 0  9998
2 41308   6.2396  71.5714 0001034 239.2433 153.3042  1.00628143 37231
1 41308U 16004A   26064.55738125  .00000013  00000-0  00000-0 0  9995
2 41308   6.2405  71.5669 0001016 240.4144 281.3728  1.00628292 37232
1 41308U 16004A   26064.62870824  .00000013  00000-0  00000+0 0  9995
2 41308   6.2406  71.5660 0001011 240.7456 306.8819  1.00628304 37236
1 41308U 16004A   26064.62870824  .00000013  00000-0  00000-0 0  9996
2 41308   6.2406  71.5660 0001011 240.7456 306.8819  1.00628304 37236
1 41308U 16004A   26065.10322613  .00000011  00000-0  00000-0 0  9996
2 41308   6.2418  71.5601 0000986 242.8963 116.6403  1.00628553 37232
1 41308U 16004A   26065.55599564  .00000008  00000-0  00000-0 0  9992
2 41308   6.2428  71.5544 0000964 244.7561 278.8112  1.00628716 37240
1 41308U 16004A   26066.14628090  .00000005  00000-0  00000+0 0  9991
2 41308   6.2442  71.5469 0000945 246.0350 131.3827  1.00628979 37250
1 41308U 16004A   26066.14628091  .00000005  00000-0  00000-0 0  9993
2 41308   6.2442  71.5469 0000945 246.0350 131.3827  1.00628979 37250
1 41308U 16004A   26066.62588219  .00000002  00000-0  00000+0 0  9999
2 41308   6.2453  71.5408 0000926 247.8303 303.3398  1.00629135 37250
1 41308U 16004A   26066.62588220  .00000002  00000-0  00000-0 0  9992
2 41308   6.2453  71.5408 0000926 247.8303 303.3398  1.00629135 37250
1 41308U 16004A   26067.12128276 -.00000001  00000-0  00000+0 0  9998
2 41308   6.2465  71.5345 0000903 249.6784 120.9677  1.00629340 37263
1 41308U 16004A   26067.52820911 -.00000004  00000-0  00000+0 0  9990
2 41308   6.2474  71.5292 0000890 250.8842 267.1855  1.00629464 37267
1 41308U 16004A   26067.52820912 -.00000004  00000-0  00000-0 0  9992
2 41308   6.2474  71.5292 0000890 250.8843 267.1856  1.00629464 37269
1 41308U 16004A   26067.66551951 -.00000005  00000-0  00000-0 0  9992
2 41308   6.2478  71.5273 0000889 251.0120 316.8035  1.00629501 37264
1 41308U 16004A   26068.55186061 -.00000012  00000-0  00000-0 0  9995
2 41308   6.2498  71.5160 0000853 253.9709 274.9542  1.00629795 37279
1 41308U 16004A   26068.62310093 -.00000012  00000-0  00000+0 0  9996
2 41308   6.2500  71.5150 0000853 254.0118 300.7229  1.00629822 37279
1 41308U 16004A   26068.62310094 -.00000012  00000-0  00000-0 0  9998
2 41308   6.2500  71.5150 0000853 254.0118 300.7229  1.00629822 37279
1 41308U 16004A   26069.12248848 -.00000016  00000-0  00000+0 0  9994
2 41308   6.2511  71.5085 0000835 254.7624 120.8940  1.00629961 37283
1 41308U 16004A   26069.12248848 -.00000016  00000-0  00000-0 0  9995
2 41308   6.2511  71.5085 0000835 254.7624 120.8940  1.00629961 37283
1 41308U 16004A   26069.32979156 -.00000018  00000-0  00000+0 0  9991
2 41308   6.2516  71.5060 0000823 255.3520 195.4076  1.00630014 37289
1 41308U 16004A   26069.66882185 -.00000020  00000-0  00000+0 0  9996
2 41308   6.2524  71.5014 0000822 256.1982 317.3885  1.00630109 37285
1 41308U 16004A   26069.66882186 -.00000020  00000-0  00000-0 0  9998
2 41308   6.2524  71.5014 0000822 256.1982 317.3885  1.00630109 37285
1 41308U 16004A   26070.12110914 -.00000024  00000-0  00000+0 0  9997
2 41308   6.2535  71.4956 0000807 256.5610 120.8840  1.00630221 37290
1 41308U 16004A   26070.12110915 -.00000024  00000-0  00000-0 0  9999
2 41308   6.2535  71.4956 0000807 256.5610 120.8840  1.00630221 37290
1 41308U 16004A   26070.62036367 -.00000028  00000-0  00000+0 0  9995
2 41308   6.2547  71.4892 0000795 257.6062 300.7133  1.00630329 37294
1 41308U 16004A   26070.62036367 -.00000028  00000-0  00000-0 0  9996
2 41308   6.2547  71.4892 0000795 257.6062 300.7134  1.00630329 37295
1 41308U 16004A   26071.11971088 -.00000032  00000-0  00000+0 0  9993
2 41308   6.2558  71.4829 0000783 257.5378 121.6894  1.00630406 37304
1 41308U 16004A   26071.11971088 -.00000032  00000-0  00000-0 0  9994
2 41308   6.2558  71.4829 0000783 257.5378 121.6894  1.00630406 37304
1 41308U 16004A   26071.54772549 -.00000036  00000-0  00000-0 0  9996
2 41308   6.2568  71.4775 0000772 257.9830 276.3095  1.00630476 37308
